{"type": "FeatureCollection", "features": [ {"type": "Feature", "properties": {"norad_id": 37216, "name": "COSMO-SKYMED 4", "group": "resource", "lat": 6.883866657926405, "lon": 174.85564005081702, "alt_km": 624.3877489072611, "timestamp": "2025-12-20T14:38:01.615274+00:00", "meta": {"OBJECT_NAME": "COSMO-SKYMED 4", "OBJECT_ID": "2010-060A", "EPOCH": "2025-12-20T06:30:04.474368", "MEAN_MOTION": 14.82153365, "ECCENTRICITY": 0.00014045, "INCLINATION": 97.8798, "RA_OF_ASC_NODE": 175.4801, "ARG_OF_PERICENTER": 84.6872, "MEAN_ANOMALY": 275.4502, "EPHEMERIS_TYPE": 0, "CLASSIFICATION_TYPE": "U", "NORAD_CAT_ID": 37216, "ELEMENT_SET_NO": 999, "REV_AT_EPOCH": 81806, "BSTAR": 7.7011404e-05, "MEAN_MOTION_DOT": 5.61e-06, "MEAN_MOTION_DDOT": 0}, "tle": {"line1": "1 37216U 10060A   25354.27088512  .00000561  00000+0  77011-4 0  9999", "line2": "2 37216  97.8798 175.4801 0001404  84.6872 275.4502 14.82153365818065"}}, "geometry": {"type": "Point", "coordinates": [174.85564005081702, 6.883866657926405]}}, {"type": "Feature", "properties": {"norad_id": 37387, "name": "RESOURCESAT-2", "group": "resource", "lat": 58.26787339910819, "lon": 43.64140750205756, "alt_km": 810.8403239333338, "timestamp": "2025-12-20T14:38:01.615285+00:00", "meta": {"OBJECT_NAME": "RESOURCESAT-2", "OBJECT_ID": "2011-015A", "EPOCH": "2025-12-20T04:13:14.196864", "MEAN_MOTION": 14.21600026, "ECCENTRICITY": 0.00060821, "INCLINATION": 98.7867, "RA_OF_ASC_NODE": 57.694, "ARG_OF_PERICENTER": 22.6144, "MEAN_ANOMALY": 337.53, "EPHEMERIS_TYPE": 0, "CLASSIFICATION_TYPE": "U", "NORAD_CAT_ID": 37387, "ELEMENT_SET_NO": 999, "REV_AT_EPOCH": 76074, "BSTAR": 6.661258e-05, "MEAN_MOTION_DOT": 1.02e-06, "MEAN_MOTION_DDOT": 0}, "tle": {"line1": "1 37387U 11015A   25354.17585876  .00000102  00000+0  66613-4 0  9990", "line2": "2 37387  98.7867  57.6940 0006082  22.6144 337.5300 14.21600026760748"}}, "geometry": {"type": "Point", "coordinates": [43.64140750205756, 58.26787339910819]}}, {"type": "Feature", "properties": {"norad_id": 37781, "name": "HAIYANG-2A", "group": "resource", "lat": -22.20379882317652, "lon": -0.7264216440689985, "alt_km": 973.3513118339843, "timestamp": "2025-12-20T14:38:01.615295+00:00", "meta": {"OBJECT_NAME": "HAIYANG-2A", "OBJECT_ID": "2011-043A", "EPOCH": "2025-12-20T06:02:06.438624", "MEAN_MOTION": 13.78836929, "ECCENTRICITY": 0.00016515, "INCLINATION": 99.3371, "RA_OF_ASC_NODE": 355.0704, "ARG_OF_PERICENTER": 73.2534, "MEAN_ANOMALY": 286.8798, "EPHEMERIS_TYPE": 0, "CLASSIFICATION_TYPE": "U", "NORAD_CAT_ID": 37781, "ELEMENT_SET_NO": 999, "REV_AT_EPOCH": 72202, "BSTAR": 0.00033885074, "MEAN_MOTION_DOT": 3.01e-06, "MEAN_MOTION_DDOT": 0}, "tle": {"line1": "1 37781U 11043A   25354.25146341  .00000301  00000+0  33885-3 0  9993", "line2": "2 37781  99.3371 355.0704 0001651  73.2534 286.8798 13.78836929722028"}}, "geometry": {"type": "Point", "coordinates": [-0.7264216440689985, -22.20379882317652]}}, {"type": "Feature", "properties": {"norad_id": 37791, "name": "RASAT", "group": "resource", "lat": 80.94513711255969, "lon": -33.40754988827027, "alt_km": 651.0979477746414, "timestamp": "2025-12-20T14:38:01.615306+00:00", "meta": {"OBJECT_NAME": "RASAT", "OBJECT_ID": "2011-044D", "EPOCH": "2025-12-20T06:24:33.019776", "MEAN_MOTION": 14.67919699, "ECCENTRICITY": 0.00215447, "INCLINATION": 98.0652, "RA_OF_ASC_NODE": 83.4132, "ARG_OF_PERICENTER": 42.3309, "MEAN_ANOMALY": 41.71, "EPHEMERIS_TYPE": 0, "CLASSIFICATION_TYPE": "U", "NORAD_CAT_ID": 37791, "ELEMENT_SET_NO": 999, "REV_AT_EPOCH": 76693, "BSTAR": 0.000101554, "MEAN_MOTION_DOT": 5.34e-06, "MEAN_MOTION_DDOT": 0}, "tle": {"line1": "1 37791U 11044D   25354.26704884  .00000534  00000+0  10155-3 0  9991", "line2": "2 37791  98.0652  83.4132 0021544  42.3309  41.7100 14.67919699766932"}}, "geometry": {"type": "Point", "coordinates": [-33.40754988827027, 80.94513711255969]}}, {"type": "Feature", "properties": {"norad_id": 37841, "name": "SRMSAT", "group": "resource", "lat": -4.1020957352710194, "lon": -108.2896584563639, "alt_km": 860.0162997887064, "timestamp": "2025-12-20T14:38:01.615316+00:00", "meta": {"OBJECT_NAME": "SRMSAT", "OBJECT_ID": "2011-058D", "EPOCH": "2025-12-20T05:22:56.230752", "MEAN_MOTION": 14.11513872, "ECCENTRICITY": 0.00119421, "INCLINATION": 19.9724, "RA_OF_ASC_NODE": 62.6529, "ARG_OF_PERICENTER": 35.7334, "MEAN_ANOMALY": 353.2285, "EPHEMERIS_TYPE": 0, "CLASSIFICATION_TYPE": "U", "NORAD_CAT_ID": 37841, "ELEMENT_SET_NO": 999, "REV_AT_EPOCH": 73250, "BSTAR": 6.8547833e-05, "MEAN_MOTION_DOT": 3.91e-06, "MEAN_MOTION_DDOT": 0}, "tle": {"line1": "1 37841U 11058D   25354.22426193  .00000391  00000+0  68548-4 0  9993", "line2": "2 37841  19.9724  62.6529 0011942  35.7334 353.2285 14.11513872732507"}}, "geometry": {"type": "Point", "coordinates": [-108.2896584563639, -4.1020957352710194]}}, {"type": "Feature", "properties": {"norad_id": 38012, "name": "PLEIADES 1A", "group": "resource", "lat": -15.383647102679122, "lon": 69.52604638880703, "alt_km": 702.5519902186434, "timestamp": "2025-12-20T14:38:01.615327+00:00", "meta": {"OBJECT_NAME": "PLEIADES 1A", "OBJECT_ID": "2011-076F", "EPOCH": "2025-12-20T06:53:29.067072", "MEAN_MOTION": 14.58567907, "ECCENTRICITY": 0.00011423, "INCLINATION": 98.1822, "RA_OF_ASC_NODE": 66.9397, "ARG_OF_PERICENTER": 75.6402, "MEAN_ANOMALY": 16.0327, "EPHEMERIS_TYPE": 0, "CLASSIFICATION_TYPE": "U", "NORAD_CAT_ID": 38012, "ELEMENT_SET_NO": 999, "REV_AT_EPOCH": 74591, "BSTAR": 7.2035107e-05, "MEAN_MOTION_DOT": 2.89e-06, "MEAN_MOTION_DDOT": 0}, "tle": {"line1": "1 38012U 11076F   25354.28714198  .00000289  00000+0  72035-4 0  9997", "line2": "2 38012  98.1822  66.9397 0001142  75.6402  16.0327 14.58567907745915"}}, "geometry": {"type": "Point", "coordinates": [69.52604638880703, -15.383647102679122]}}, {"type": "Feature", "properties": {"norad_id": 38038, "name": "ZIYUAN 1-02C (ZY 1-02C)", "group": "resource", "lat": 30.603360338408354, "lon": 55.44466961983842, "alt_km": 763.0801535641231, "timestamp": "2025-12-20T14:38:01.615342+00:00", "meta": {"OBJECT_NAME": "ZIYUAN 1-02C (ZY 1-02C)", "OBJECT_ID": "2011-079A", "EPOCH": "2025-12-20T06:33:04.516416", "MEAN_MOTION": 14.38019863, "ECCENTRICITY": 0.00074396, "INCLINATION": 98.4331, "RA_OF_ASC_NODE": 60.1482, "ARG_OF_PERICENTER": 118.7862, "MEAN_ANOMALY": 329.9519, "EPHEMERIS_TYPE": 0, "CLASSIFICATION_TYPE": "U", "NORAD_CAT_ID": 38038, "ELEMENT_SET_NO": 999, "REV_AT_EPOCH": 73349, "BSTAR": 0.000123465, "MEAN_MOTION_DOT": 3.3e-06, "MEAN_MOTION_DDOT": 0}, "tle": {"line1": "1 38038U 11079A   25354.27296894  .00000330  00000+0  12347-3 0  9991", "line2": "2 38038  98.4331  60.1482 0007439 118.7862 329.9519 14.38019863733496"}}, "geometry": {"type": "Point", "coordinates": [55.44466961983842, 30.603360338408354]}}, {"type": "Feature", "properties": {"norad_id": 38338, "name": "ARIRANG-3 (KOMPSAT-3)", "group": "resource", "lat": -28.453971940870847, "lon": -46.18537944575899, "alt_km": 690.2036234053867, "timestamp": "2025-12-20T14:38:01.615354+00:00", "meta": {"OBJECT_NAME": "ARIRANG-3 (KOMPSAT-3)", "OBJECT_ID": "2012-025B", "EPOCH": "2025-12-20T06:33:02.636352", "MEAN_MOTION": 14.61721829, "ECCENTRICITY": 0.00048995, "INCLINATION": 98.3333, "RA_OF_ASC_NODE": 308.9194, "ARG_OF_PERICENTER": 312.5672, "MEAN_ANOMALY": 47.5115, "EPHEMERIS_TYPE": 0, "CLASSIFICATION_TYPE": "U", "NORAD_CAT_ID": 38338, "ELEMENT_SET_NO": 999, "REV_AT_EPOCH": 72520, "BSTAR": 8.9258561e-05, "MEAN_MOTION_DOT": 3.96e-06, "MEAN_MOTION_DDOT": 0}, "tle": {"line1": "1 38338U 12025B   25354.27294718  .00000396  00000+0  89259-4 0  9998", "line2": "2 38338  98.3333 308.9194 0004899 312.5672  47.5115 14.61721829725206"}}, "geometry": {"type": "Point", "coordinates": [-46.18537944575899, -28.453971940870847]}}, {"type": "Feature", "properties": {"norad_id": 38709, "name": "EXACTVIEW-1 (ADS-1B)", "group": "resource", "lat": 7.9357741448773735, "lon": 101.90398003694568, "alt_km": 804.7022390259317, "timestamp": "2025-12-20T14:38:01.615365+00:00", "meta": {"OBJECT_NAME": "EXACTVIEW-1 (ADS-1B)", "OBJECT_ID": "2012-039C", "EPOCH": "2025-12-19T21:44:37.095360", "MEAN_MOTION": 14.24910684, "ECCENTRICITY": 0.0010313, "INCLINATION": 98.9639, "RA_OF_ASC_NODE": 102.4464, "ARG_OF_PERICENTER": 333.0281, "MEAN_ANOMALY": 27.036, "EPHEMERIS_TYPE": 0, "CLASSIFICATION_TYPE": "U", "NORAD_CAT_ID": 38709, "ELEMENT_SET_NO": 999, "REV_AT_EPOCH": 69717, "BSTAR": 6.0667e-05, "MEAN_MOTION_DOT": 9.5e-07, "MEAN_MOTION_DDOT": 0}, "tle": {"line1": "1 38709U 12039C   25353.90598490  .00000095  00000+0  60667-4 0  9996", "line2": "2 38709  98.9639 102.4464 0010313 333.0281  27.0360 14.24910684697179"}}, "geometry": {"type": "Point", "coordinates": [101.90398003694568, 7.9357741448773735]}}, {"type": "Feature", "properties": {"norad_id": 38755, "name": "SPOT 6", "group": "resource", "lat": -81.67852562174846, "lon": 160.55124646501216, "alt_km": 706.1713952657456, "timestamp": "2025-12-20T14:38:01.615400+00:00", "meta": {"OBJECT_NAME": "SPOT 6", "OBJECT_ID": "2012-047A", "EPOCH": "2025-12-20T06:49:16.155264", "MEAN_MOTION": 14.58538177, "ECCENTRICITY": 0.0001326, "INCLINATION": 98.157, "RA_OF_ASC_NODE": 58.9303, "ARG_OF_PERICENTER": 79.7465, "MEAN_ANOMALY": 280.3884, "EPHEMERIS_TYPE": 0, "CLASSIFICATION_TYPE": "U", "NORAD_CAT_ID": 38755, "ELEMENT_SET_NO": 999, "REV_AT_EPOCH": 70697, "BSTAR": 4.1027468e-05, "MEAN_MOTION_DOT": 1.45e-06, "MEAN_MOTION_DDOT": 0}, "tle": {"line1": "1 38755U 12047A   25354.28421476  .00000145  00000+0  41027-4 0  9992", "line2": "2 38755  98.1570  58.9303 0001326  79.7465 280.3884 14.58538177706979"}}, "geometry": {"type": "Point", "coordinates": [160.55124646501216, -81.67852562174846]}}]}